[{"OBJECT_NAME":"ASTROCAST-0403","OBJECT_ID":"2023-001DG","EPOCH":"2026-03-09T19:45:35.762976","MEAN_MOTION":15.28004949,"ECCENTRICITY":0.00047706,"INCLINATION":97.5604,"RA_OF_ASC_NODE":161.3228,"ARG_OF_PERICENTER":338.0704,"MEAN_ANOMALY":22.033,"EPHEMERIS_TYPE":0,"CLASSIFICATION_TYPE":"U","NORAD_CAT_ID":55111,"ELEMENT_SET_NO":999,"REV_AT_EPOCH":12937,"BSTAR":0.0005131719,"MEAN_MOTION_DOT":0.00013959,"MEAN_MOTION_DDOT":0},{"OBJECT_NAME":"STARLINK-30123","OBJECT_ID":"2023-079R","EPOCH":"2026-03-09T06:44:27.035808","MEAN_MOTION":15.2758213,"ECCENTRICITY":5.731e-5,"INCLINATION":43.0029,"RA_OF_ASC_NODE":36.2461,"ARG_OF_PERICENTER":244.6069,"MEAN_ANOMALY":115.4724,"EPHEMERIS_TYPE":0,"CLASSIFICATION_TYPE":"U","NORAD_CAT_ID":56838,"ELEMENT_SET_NO":999,"REV_AT_EPOCH":15368,"BSTAR":-6.6310662e-5,"MEAN_MOTION_DOT":-2.086e-5,"MEAN_MOTION_DDOT":0}]
